GUOWANG OBJECT A        
1 69572U 26137A   26193.89246529 -.00000143  00000+0  24502-5 0  9990
2 69572  49.9997 153.0717 0012495 311.3863  48.5960 13.89812741  3591
GUOWANG OBJECT B        
1 69573U 26137B   26190.65385973 -.00000214  00000+0 -55136-4 0  9995
2 69573  50.0016 165.9303 0011859 298.8434  61.1273 13.89803849  3155
GUOWANG OBJECT C        
1 69574U 26137C   26193.88847439 -.00000180  00000+0 -27480-4 0  9997
2 69574  49.9967 153.0345 0011896 311.4365  48.5511 13.89814739  3602
GUOWANG OBJECT D        
1 69575U 26137D   26197.63232185 -.00000205  00000+0 -52974-4 0  9995
2 69575  49.9997 138.1865 0000547 308.4892  51.5955 13.85253720  4126
GUOWANG OBJECT E        
1 69576U 26137E   26193.02348711 -.00000204  00000+0 -46563-4 0  9994
2 69576  50.0038 156.4799 0011224 310.0552  49.9361 13.89824941  3484
GUOWANG OBJECT F        
1 69577U 26137F   26192.30363530 -.00000204  00000+0 -46815-4 0  9991
2 69577  50.0028 159.3340 0010834 307.7048  52.2867 13.89809360  3382
GUOWANG OBJECT G        
1 69578U 26137G   26192.30278168 -.00000142  00000+0  35461-5 0  9990
2 69578  49.9952 159.3085 0010806 307.5258  52.4657 13.89795025  3383
GUOWANG OBJECT H        
1 69579U 26137H   26191.00768142 -.00000175  00000+0 -23862-4 0  9991
2 69579  50.0012 164.4679 0010249 306.3680  53.6272 13.89776278  3203
GUOWANG OBJECT J        
1 69580U 26137J   26178.27848690  .00000022  00000+0  13174-3 0  9997
2 69580  49.9961 215.0979 0011832 257.3150 102.6427 13.91997107  1436
CZ-12 R/B               
1 69581U 26137K   26194.27991700 -.00000112  00000+0  22245-4 0  9998
2 69581  49.9888 147.7098 0077441 203.1402 156.6010 14.11694334  3691
CENTISPACE-1 GROUP 05 O*
1 69582U 26138A   26194.34106729 -.00000052  00000+0  51929-4 0  9991
2 69582  55.1388 184.5993 0011308 340.3719  19.6818 14.15470945  3726
CENTISPACE-1 GROUP 05 O*
1 69583U 26138B   26194.47892911 -.00000145  00000+0  42988-5 0  9990
2 69583  55.1382 184.0587 0010295 341.1535  18.9057 14.15650579  3746
CENTISPACE-1 GROUP 05 O*
1 69584U 26138C   26194.47735153 -.00000196  00000+0 -21642-4 0  9995
2 69584  55.1387 184.0592 0010227 342.7982  17.2644 14.15734094  3745
CENTISPACE-1 GROUP 05 O*
1 69585U 26138D   26194.47408623 -.00000301  00000+0 -74602-4 0  9997
2 69585  55.1385 184.0335 0009819 342.0163  18.0463 14.15919525  3740
CENTISPACE-1 GROUP 05 O*
1 69586U 26138E   26194.68463529 -.00000301  00000+0 -74193-4 0  9992
2 69586  55.1377 183.2516 0009571 343.0370  17.0283 14.15986491  3778
CENTISPACE-1 GROUP 05 O*
1 69587U 26138F   26193.97992150 -.00000292  00000+0 -69905-4 0  9995
2 69587  55.1382 185.8680 0009436 345.5018  14.5684 14.15909909  3676
CENTISPACE-1 GROUP 05 O*
1 69588U 26138G   26193.41218649 -.00000375  00000+0 -11167-3 0  9997
2 69588  55.1383 187.9363 0008629 344.0005  16.0696 14.16073930  3590
SPACEMOBILE-008         
1 69589U 26139A   26198.20086555  .00000273  00000+0  32353-4 0  9996
2 69589  52.9950 126.3014 0005137  61.2203 298.9303 15.12803619  4527
SPACEMOBILE-009         
1 69590U 26139B   26198.20296954  .00000298  00000+0  33869-4 0  9994
2 69590  52.9941 126.3087 0005408  57.2840 302.8672 15.12696995  4523
SPACEMOBILE-010         
1 69591U 26139C   26198.20630281  .00000517  00000+0  46400-4 0  9999
2 69591  52.9948 126.3326 0005332  49.3144 310.8309 15.12530958  4535
KUIPER-00423            
1 69592U 26140A   26197.54659338  .00017891  00000+0  47033-3 0  9997
2 69592  51.8791 256.5076 0013428 274.9771  84.9683 15.38576772  5756
KUIPER-00428            
1 69593U 26140B   26197.52158334  .00011038  00000+0  31057-3 0  9992
2 69593  51.8788 257.0785 0007621  36.6922 323.4585 15.36968930  5745
KUIPER-00481            
1 69594U 26140C   26197.49328477  .00014695  00000+0  39537-3 0  9999
2 69594  51.8779 256.8906 0011053 284.4682  75.5079 15.38048200  5742
KUIPER-00490            
1 69595U 26140D   26198.15289638  .00019722  00000+0  52822-3 0  9997
2 69595  51.8754 253.8040 0006590 348.2287  11.8545 15.37994702  5840
KUIPER-00493            
1 69596U 26140E   26197.59227060  .00010960  00000+0  31187-3 0  9992
2 69596  51.8787 256.8020 0008108  42.9897 317.1722 15.36618338  5756
KUIPER-00496            
1 69597U 26140F   26197.42314176  .00003351  00000+0  11067-3 0  9991
2 69597  51.8777 257.9019 0010135  54.2206 305.9720 15.34266538  5728
KUIPER-00513            
1 69598U 26140G   26198.14937032  .00014538  00000+0  38986-3 0  9992
2 69598  51.8795 253.7949 0007351 346.2552  13.8234 15.38190705  5843
KUIPER-00516            
1 69599U 26140H   26198.15838340  .00016165  00000+0  44019-3 0  9998
2 69599  51.8776 253.8435 0007029   2.7166 357.3858 15.37626162  5849
KUIPER-00517            
1 69600U 26140J   26198.13343537  .00015633  00000+0  40999-3 0  9990
2 69600  51.8769 253.6826 0010319 301.9296  58.0687 15.38791542  5841
KUIPER-00520            
1 69601U 26140K   26197.57425950  .00013119  00000+0  35883-3 0  9991
2 69601  51.8807 256.6928 0007453   0.6161 359.4834 15.37671975  5758
